GLOBALSTAR M023         
1 25621U 99004A   24207.80138787 -.00000017  00000+0  48328-3 0  9991
2 25621  52.0124 327.2704 0010804 126.0981  33.7021 12.62464442174505
GLOBALSTAR M040         
1 25622U 99004B   24207.38067472 -.00000091  00000+0  69703-4 0  9990
2 25622  51.9941 332.2207 0001250  76.3430 301.8098 12.61977471173991
GLOBALSTAR M036         
1 25623U 99004C   24207.89572007 -.00000037  00000+0  66077-3 0  9992
2 25623  51.9985  20.3354 0011631 141.0998  12.6023 11.86571795140243
GLOBALSTAR M038         
1 25624U 99004D   24207.78319550 -.00000054  00000+0  33780-3 0  9997
2 25624  51.9981 291.5634 0002311 103.5547  46.5249 12.32503636162129
GLOBALSTAR M022         
1 25649U 99012A   24207.91106243 -.00000074  00000+0  15294-3 0  9993
2 25649  52.0042  97.8590 0001771 247.1594 217.9403 12.02485351137128
GLOBALSTAR M041         
1 25650U 99012B   24207.79219805 -.00000045  00000+0  52114-3 0  9990
2 25650  52.0043 329.6821 0002890  54.3120 305.7985 11.96656273139207
GLOBALSTAR M046         
1 25651U 99012C   24207.90276954 -.00000034  00000+0  60783-3 0  9991
2 25651  52.0064  59.9260 0002092 343.6170 146.5528 12.09392279144189
GLOBALSTAR M037         
1 25652U 99012D   24207.91135406 -.00000045  00000+0  33007-3 0  9990
2 25652  52.0006  97.6734 0001541 163.0925 300.9342 12.62412783170069
